{
  "norad_id": 46343,
  "name": "STARLINK-1764",
  "history": [
    {
      "epoch": "2026-03-28T22:00:01.999584Z",
      "apogee_km": 358.87197464575456,
      "perigee_km": 352.2763045845013,
      "latitude_deg": 38.713819117870045,
      "longitude_deg": -151.0228619468495,
      "height_km": 361.2905101958047,
      "semi_major_axis_km": 6733.711139615128,
      "eccentricity": 0.00048975,
      "inclination_deg": 53.0408,
      "raan_deg": 222.1663,
      "arg_perigee_deg": 351.5608,
      "mean_anomaly_deg": 137.0922,
      "mean_motion_rev_day": 15.7116226
    },
    {
      "epoch": "2026-03-29T00:00:01.999296Z",
      "apogee_km": 358.6806977171109,
      "perigee_km": 352.2568378146616,
      "latitude_deg": -44.104478229477586,
      "longitude_deg": -98.1830455317747,
      "height_km": 371.4757956804054,
      "semi_major_axis_km": 6733.6057677658855,
      "eccentricity": 0.000477,
      "inclination_deg": 53.0408,
      "raan_deg": 221.7529,
      "arg_perigee_deg": 351.6175,
      "mean_anomaly_deg": 248.6471,
      "mean_motion_rev_day": 15.7119914
    }
  ]
}